#dP2024  3 22  6  0  0.00000000      96 __u+U IGS20 EXT  IAC
## 2306 453600.00000000   900.00000000 60391 0.2500000000000
+  120   C06C07C08C09C10C11C12C13C14C16C19C20C21C22C23C24C25
+        C26C27C28C29C30C32C33C34C35C36C37C38C39C40C41C42C43
+        C44C45C46E02E03E04E05E07E08E09E10E11E12E13E14E15E18
+        E19E21E24E25E26E27E30E31E33E34E36G01G02G03G04G05G06
+        G07G08G09G10G11G12G13G14G15G16G17G18G19G20G21G22G23
+        G24G25G26G27G28G29G30G31G32J02J03J04R01R02R03R04R05
+        R07R08R09R11R12R13R14R15R16R17R18R19R20R21R22R24R25
+        R26  0  0  0  0  0  0  0  0  0  0  0  0  0  0  0  0
++         9 10  8  9  8  8 10  8  9 10  7  9  8  9  8  9  8
++         9  7  8  9  8  8  8  8 10 10  8  8 10 10  8  9  8
++         9  8  9  8  8  8  8  8  8  8  8  8  8  8  8  8  7
++         8  8  8  8  7  8  7  8  7  8  8  6  7  7  8  8  7
++         8  8  7  7  9  8  8  7  8  8  8  9  8  7  7  7  9
++         8  7  8  9  7  8 11  8  7 10  9  0  8  8  7  7  7
++         8  9  8  8  9  9  7  8  8  8  7 10  9  7  9  7  7
++         8  0  0  0  0  0  0  0  0  0  0  0  0  0  0  0  0
%c M  cc GPS ccc cccc cccc cccc cccc ccccc ccccc ccccc ccccc
%c cc cc ccc ccc cccc cccc cccc cccc ccccc ccccc ccccc ccccc
%f  0.0000000  0.000000000  0.00000000000  0.000000000000000
%f  0.0000000  0.000000000  0.00000000000  0.000000000000000
%i    0    0    0    0      0      0      0      0         0
%i    0    0    0    0      0      0      0      0         0
/* IAC                                ULTRA-RAPID PREDICTION
/* S/V CLOCKS ARE ALIGNED TO GNSS TIME                      
/* G:C1WC2W R:C1PC2P E:C1XC5X C:C2IC6I J:C1CC2S             
/* PCV:IGS20_2290 OL/AL:FES2004  NONE     YN ORB:CoN CLK:CoN
*  2024 03 22 21 15  0.00000000
PC06  -2472.104468  26189.508262  33069.608618    291.637936
PC07 -18388.315480  33634.489942 -17709.328060   -890.668039
PC08  -5998.885013  39557.593902 -12971.115447     39.569046
PC09   4452.280206  29155.705826  30813.685421   -657.515199
PC10 -11111.172084  33717.180361 -22812.927099     33.784953
PC11  -3120.313202  15095.199562 -23197.593670    473.430424
PC12 -21897.226133   6308.971641 -16069.236893   -218.239854
PC13   -561.321068  41691.946379  -5006.513231    426.592139
PC14 -10064.382636  23525.389975  11231.018306    467.190642
PC16  -7078.956123  23664.594950  34488.214445   -412.154604
PC19   1710.165185 -20972.789036 -18283.965101   -917.792342
PC20  15813.210080 -22610.523522  -4027.775807   -283.536692
PC21 -21657.215625  10639.517150 -14026.220675   -961.494997
PC22 -14253.855062  -7171.312090 -22894.082161    -65.409176
PC23  16162.212480  19170.334201 -12246.727515   -775.894640
PC24  -7837.302729  18892.427295  18956.132795    951.308362
PC25   6783.752162  26697.210242   4392.373187    356.058512
PC26 -16855.298985    664.558502  22215.131185   -266.539985
PC27  26527.422096   -952.612059   8612.112542    288.406993
PC28  25077.905182   9972.485470  -7104.738885    220.100139
PC29  -7702.156805 -16327.259351  21271.093320    258.118142
PC30  14261.680078 -12399.175826  20530.891608    -42.559974
PC32  21562.221782 -10667.362284  14146.059922   -587.712565
PC33  -1651.172683  21077.515093  18235.190352   -961.040216
PC34 -12602.613631  13144.180193 -21154.274098    395.871240
PC35 -25320.485701  -9145.313523   7251.729854    404.908764
PC36  -5951.370419 -26860.331827  -4691.222643     27.098059
PC37  16949.792919     49.216875 -22160.105364   -947.751336
PC38 -10210.210238  35922.962074 -19398.587762    144.362611
PC39 -12527.770701  20625.619138  34635.978454     -7.675827
PC40 -25826.061143  28476.690232 -17642.299316    -61.988131
PC41  13704.094466   7997.985963  23013.097398   -910.294140
PC42 -16718.467550  22234.300410   2490.694659   -445.768350
PC43   6642.186244  16504.273743 -21518.345789     65.138635
PC44 -26503.942816   1963.920213  -8470.806981    421.202740
PC45 -16067.539573 -19197.592984  12346.780211    -76.893739
PC46   7212.498735 -19560.711468 -18578.251493   -133.800383
PE02 -12001.989883  26036.738392   7317.240215    113.352511
PE03 -17502.834526  17083.442356  16684.989458   -102.112030
PE04  -4206.027384 -16427.405140 -24248.915912   -355.864476
PE05 -28570.123885   7732.907153   -498.103589   4731.536038
PE07  22744.123842   6490.937376  17800.739401   -110.390883
PE08   3291.203531  16532.522184  24337.177004   -243.081874
PE09 -22660.924736  -6434.884072 -17925.413138   -379.990495
PE10 -18983.756972 -22291.955104   4322.413095   -611.336013
PE11 -23294.811967 -17164.167547  -6191.260852   3141.084687
PE12 -12188.034077 -23626.612469  12985.598430   -960.367248
PE13  23161.489661  17589.399045   5557.836180    -20.652653
PE14  16731.543237  11773.174820 -18248.424697     73.909926
PE15  11810.813421  23568.770315 -13470.630369    -92.739626
PE18 -29232.960070    -38.788116   7796.792310    465.452137
PE19  19486.368602 -16303.092117 -15175.003011   -383.466381
PE21  17826.279810 -10266.486567 -21292.409842   -585.317665
PE24 -13338.026672 -12633.000246  23192.106086   -665.772334
PE25 -17841.533943   9826.024547  21472.988074      2.436143
PE26  20596.769737    760.624044  21253.814580    404.068810
PE27  13519.484798  12180.681550 -23348.783553   -305.377642
PE30   1116.399756  27267.561623 -11463.152230   -121.752791
PE31  -1287.716035 -27198.588218  11613.392156    -18.916551
PE33   6801.293878 -15257.070282  24439.230095      9.383228
PE34  -6276.132551  15659.317740 -24325.669867   -101.447181
PE36 -20781.998835  -1425.579476 -21019.486840   -202.902135
PG01  21357.755811   8825.336219  13048.545169    175.410352
PG02  22525.916558  13787.223084   4447.322208   -465.958615
PG03  13170.998489   7315.309340  21741.453073    267.648276
PG04  22771.079674   3458.168078  13361.373046    321.190455
PG05  -7421.781201 -20079.459142 -15833.659055   -166.367637
PG06   2589.590770 -16381.586813  20782.004033    356.334825
PG07  18567.189675   -899.534754 -18644.544218    -90.335129
PG08  16372.069325   8799.154605 -19230.035221     73.408099
PG09  25460.077903  -7549.413708   1287.649896    133.779723
PG10 -10617.586540  22767.069811  -7898.420809     -1.913212
PG11  -8570.960776 -21576.103346  12969.232776   -614.670048
PG12 -12623.433012  -9219.249689  21194.771720   -489.639573
PG13  -6980.169425 -13936.482489 -21735.296798    636.409810
PG14  13384.983298 -19926.702589 -11124.315145    357.275259
PG15 -17145.922407  -7620.604154 -19363.508319    140.441026
PG16   1781.996036  23222.846938 -12667.543709   -334.937411
PG17  20225.351644 -13145.159454  11710.866781    712.669425
PG18 -17492.610401   1915.834833 -19937.882678   -580.634205
PG19  12121.694838 -14934.965330  17963.693197    457.664226
PG20  -1734.707157 -26233.659474  -4265.647079    382.960549
PG21  21132.847942  16946.073939   -670.167885    130.310699
PG22  10154.474355 -24481.791739  -2949.275623     11.901777
PG23 -14767.252431  12990.744660 -17734.332024    183.178143
PG24 -21744.522897 -15561.430881   1180.817094   -449.895868
PG25 -15758.891683   2582.370278  20841.571825    491.979175
PG26  -3601.078827  26110.349111   -353.990213    176.314532
PG27   3800.447117  14832.320745 -21975.201367    -13.677389
PG28  -4923.172389  15264.462405  21153.938102   -174.275281
PG29 -26163.302181   3727.916397   3118.056798   -604.101186
PG30  10677.768761 -11490.615669 -21296.717422   -416.052621
PG31   4170.158227  20168.878645  16334.112557   -228.009656
PG32 -16930.582201  15336.020282  13583.606298   -616.596778
PJ02 -31898.129471  25583.628485  15323.319166     -3.196648
PJ03 -25779.265803  16716.256414 -24270.755162     -0.165762
PJ04      0.000000      0.000000      0.000000     50.597461
PR01  16822.542776  -2511.267219  19010.641388     80.393391
PR02  20932.401789 -13945.314114   4493.498186    -22.619078
PR03  12872.080341 -18056.281270 -12605.086787     96.852236
PR04  -1737.851374 -11913.193440 -22453.899334    228.731320
PR05 -15564.717629    386.471256 -20180.364393    128.823722
PR07 -12098.303174  17942.379856  13512.823102     78.536744
PR08   2208.903481  11832.237229  22551.404020    -74.820241
PR09  -9270.983702   9290.768747  21902.204652    176.814044
PR11   6364.978221  24291.493631  -4525.395572     30.388550
PR12  11527.240651  10607.464805 -20106.748307     38.114472
PR13   9904.187760  -6435.352146 -22627.032694    -45.547783
PR14   1583.093640 -22832.940989 -11234.581675     26.252491
PR15  -6870.967254 -23805.922579   6064.224819     81.136746
PR16 -11443.907526 -10818.072372  20059.761312     24.227125
PR17   2632.187225 -10337.099488  23177.554253     71.326645
PR18 -13776.411632 -13628.055508  16567.980990    133.472953
PR19 -22594.915492 -11428.105588   3070.500586   -270.344671
PR20 -19212.176096   -339.141635 -16742.633272   -110.168846
PR21  -2630.020768  10256.762413 -23207.362027    -86.660642
PR22  14310.757643  14260.199854 -15559.635670    114.135896
PR24  18997.508320  -1138.261604  16994.542279    -48.821670
PR25  -3022.174032  10561.450400 -23016.732312    -24.382351
PR26   1230.195999  12482.199120  22240.856070    -28.890110
EOF
